NORAD_CAT_ID,OBJECT_NAME,OBJECT_TYPE,EPOCH,MEAN_MOTION,ECCENTRICITY,INCLINATION,RA_OF_ASC_NODE,ARG_OF_PERICENTER,MEAN_ANOMALY,BSTAR,MEAN_MOTION_DOT,MEAN_MOTION_DDOT,TLE_LINE0,TLE_LINE1,TLE_LINE2,SEMIMAJOR_AXIS,PERIOD,APOGEE,PERIGEE,DECAYED
53849.0,STARLINK-4770,PAYLOAD,2023-07-29 08:50:51,15.08847779,0.0001112,53.2156,258.0894,102.3345,257.7771,-0.00010179,-1.908e-05,0.0,0 STARLINK-4770,1 53849U 22114AH  23210.36865507 -.00001908  00000-0 -10179-3 0  9998,2 53849  53.2156 258.0894 0001112 102.3345 257.7771 15.08847779 48365,6917.857,95.437,540.491,538.952,0.0
53849.0,STARLINK-4770,PAYLOAD,2023-07-30 10:17:02,15.08837731,9.03e-05,53.2155,253.3311,106.2703,253.8388,0.00012746,1.741e-05,0.0,0 STARLINK-4770,1 53849U 22114AH  23211.42849820  .00001741  00000-0  12746-3 0  9991,2 53849  53.2155 253.3311 0000903 106.2703 253.8388 15.08837731 48520,6917.887,95.438,540.377,539.128,0.0
53849.0,STARLINK-4770,PAYLOAD,2023-07-31 11:43:12,15.08844463,0.0001107,53.2163,248.5723,82.516,277.5958,7.8684e-05,9.65e-06,0.0,0 STARLINK-4770,1 53849U 22114AH  23212.48833762  .00000965  00000-0  78684-4 0  9997,2 53849  53.2163 248.5723 0001107  82.5160 277.5958 15.08844463 48685,6917.867,95.437,540.498,538.966,0.0
53849.0,STARLINK-4770,PAYLOAD,2023-07-31 22:50:54,15.08836595,0.0001001,53.2155,246.4905,89.6561,270.4546,2.6449e-05,1.33e-06,0.0,0 STARLINK-4770,1 53849U 22114AH  23212.95202317  .00000133  00000-0  26449-4 0  9994,2 53849  53.2155 246.4905 0001001  89.6561 270.4546 15.08836595 48751,6917.891,95.438,540.448,539.063,0.0
53849.0,STARLINK-4770,PAYLOAD,2023-08-02 01:52:27,15.08839846,8.58e-05,53.2157,241.4349,80.6334,279.4755,4.2773e-05,3.93e-06,0.0,0 STARLINK-4770,1 53849U 22114AH  23214.07810069  .00000393  00000-0  42773-4 0  9994,2 53849  53.2157 241.4349 0000858  80.6334 279.4755 15.08839846 48920,6917.881,95.438,540.339,539.152,0.0
53849.0,STARLINK-4770,PAYLOAD,2023-08-03 08:04:47,15.08841987,0.0001016,53.2156,235.7868,74.8639,285.2466,0.00010744,1.423e-05,0.0,0 STARLINK-4770,1 53849U 22114AH  23215.33665790  .00001423  00000-0  10744-3 0  9990,2 53849  53.2156 235.7868 0001016  74.8639 285.2466 15.08841987 49116,6917.874,95.437,540.442,539.036,0.0
53849.0,STARLINK-4770,PAYLOAD,2023-08-04 01:34:02,15.08836352,0.0001044,53.2155,232.515,80.0816,280.0294,2.8894e-07,-2.83e-06,0.0,0 STARLINK-4770,1 53849U 22114AH  23216.06530444 -.00000283  00000-0  28894-6 0  9990,2 53849  53.2155 232.5150 0001044  80.0816 280.0294 15.08836352 49225,6917.892,95.438,540.479,539.034,0.0
53849.0,STARLINK-4770,PAYLOAD,2023-08-05 07:46:21,15.08843202,0.0001056,53.2159,226.8645,94.4091,265.7022,4.7104e-05,4.62e-06,0.0,0 STARLINK-4770,1 53849U 22114AH  23217.32385845  .00000462  00000-0  47104-4 0  9994,2 53849  53.2159 226.8645 0001056  94.4091 265.7022 15.08843202 49413,6917.871,95.437,540.466,539.005,0.0
53849.0,STARLINK-4770,PAYLOAD,2023-08-06 04:26:22,15.08836076,0.0001074,53.2163,223.0002,91.9011,268.2104,7.3255e-05,8.78e-06,0.0,0 STARLINK-4770,1 53849U 22114AH  23218.18498328  .00000878  00000-0  73255-4 0  9997,2 53849  53.2163 223.0002 0001074  91.9011 268.2104 15.08836076 49542,6917.892,95.438,540.5,539.014,0.0
53849.0,STARLINK-4770,PAYLOAD,2023-08-07 09:03:19,15.08836768,0.0001099,53.2163,217.6485,91.5907,268.5211,-9.4157e-07,-3.03e-06,0.0,0 STARLINK-4770,1 53849U 22114AH  23219.37730828 -.00000303  00000-0 -94157-6 0  9994,2 53849  53.2163 217.6485 0001099  91.5907 268.5211 15.08836768 49723,6917.89,95.438,540.516,538.995,0.0
53849.0,STARLINK-4770,PAYLOAD,2023-08-08 08:54:05,15.08846847,0.0001062,53.2158,213.1871,87.8585,272.2529,0.00010702,1.416e-05,0.0,0 STARLINK-4770,1 53849U 22114AH  23220.37089878  .00001416  00000-0  10702-3 0  9993,2 53849  53.2158 213.1871 0001062  87.8585 272.2529 15.08846847 49876,6917.859,95.437,540.459,538.99,0.0
53849.0,STARLINK-4770,PAYLOAD,2023-08-08 16:51:01,15.08840173,0.0001026,53.2157,211.6971,75.3148,284.7958,-1.4815e-05,-5.24e-06,0.0,0 STARLINK-4770,1 53849U 22114AH  23220.70210597 -.00000524  00000-0 -14815-4 0  9995,2 53849  53.2157 211.6971 0001026  75.3148 284.7958 15.08840173 49922,6917.88,95.438,540.455,539.035,0.0
53849.0,STARLINK-4770,PAYLOAD,2023-08-10 08:35:40,15.0884374,0.0001105,53.216,204.2634,84.9297,275.1822,3.091e-05,2.04e-06,0.0,0 STARLINK-4770,1 53849U 22114AH  23222.35810381  .00000204  00000-0  30910-4 0  9992,2 53849  53.2160 204.2634 0001105  84.9297 275.1822 15.08843740 50175,6917.869,95.437,540.498,538.97,0.0
53849.0,STARLINK-4770,PAYLOAD,2023-08-11 02:04:54,15.08837605,0.0001087,53.2142,200.994,77.1648,282.9465,7.0103e-05,8.28e-06,0.0,0 STARLINK-4770,1 53849U 22114AH  23223.08674679  .00000828  00000-0  70103-4 0  9991,2 53849  53.2142 200.9940 0001087  77.1648 282.9465 15.08837605 50285,6917.888,95.438,540.505,539.001,0.0
53849.0,STARLINK-4770,PAYLOAD,2023-08-12 01:55:42,15.08834408,0.0001236,53.2139,196.5352,73.2972,286.8156,-2.9724e-05,-7.61e-06,0.0,0 STARLINK-4770,1 53849U 22114AH  23224.08035375 -.00000761  00000-0 -29724-4 0  9997,2 53849  53.2139 196.5352 0001236  73.2972 286.8156 15.08834408 50436,6917.897,95.438,540.618,538.907,0.0
53849.0,STARLINK-4770,PAYLOAD,2023-08-12 08:17:14,15.0884355,0.0001237,53.2162,195.3441,91.0739,269.0395,-4.66e-05,-1.03e-05,0.0,0 STARLINK-4770,1 53849U 22114AH  23224.34530892 -.00001030  00000-0 -46600-4 0  9992,2 53849  53.2162 195.3441 0001237  91.0739 269.0395 15.08843550 50478,6917.87,95.437,540.59,538.879,0.0
53849.0,STARLINK-4770,PAYLOAD,2023-08-13 00:11:06,15.08833137,0.0001234,53.2161,192.3706,98.9729,261.1403,-1.5732e-05,-5.38e-06,0.0,0 STARLINK-4770,1 53849U 22114AH  23225.00771597 -.00000538  00000-0 -15732-4 0  9999,2 53849  53.2161 192.3706 0001234  98.9729 261.1403 15.08833137 50574,6917.901,95.438,540.62,538.913,0.0
53849.0,STARLINK-4770,PAYLOAD,2023-08-13 08:08:01,15.08839077,0.0001146,53.2161,190.8843,88.0972,272.0152,2.144e-05,5.3e-07,0.0,0 STARLINK-4770,1 53849U 22114AH  23225.33891177  .00000053  00000-0  21440-4 0  9995,2 53849  53.2161 190.8843 0001146  88.0972 272.0152 15.08839077 50628,6917.883,95.438,540.541,538.955,0.0
53849.0,STARLINK-4770,PAYLOAD,2023-08-15 01:28:04,15.08835396,0.0001349,53.216,183.153,88.908,271.2067,3.8751e-05,3.29e-06,0.0,0 STARLINK-4770,1 53849U 22114AH  23227.06115833  .00000329  00000-0  38751-4 0  9994,2 53849  53.2160 183.1530 0001349  88.9080 271.2067 15.08835396 50883,6917.894,95.438,540.693,538.826,0.0
53849.0,STARLINK-4770,PAYLOAD,2023-08-16 02:54:13,15.08840284,0.0001197,53.2163,178.3953,91.2805,268.8324,0.00013003,1.782e-05,0.0,0 STARLINK-4770,1 53849U 22114AH  23228.12099194  .00001782  00000-0  13003-3 0  9999,2 53849  53.2163 178.3953 0001197  91.2805 268.8324 15.08840284 51043,6917.88,95.438,540.573,538.916,0.0
53849.0,STARLINK-4770,PAYLOAD,2023-08-16 06:04:59,15.08855734,0.0001182,53.2165,177.8002,93.1845,266.9283,1.1548e-05,-1.04e-06,0.0,0 STARLINK-4770,1 53849U 22114AH  23228.25346689 -.00000104  00000-0  11548-4 0  9998,2 53849  53.2165 177.8002 0001182  93.1845 266.9283 15.08855734 51064,6917.832,95.437,540.515,538.88,0.0
53849.0,STARLINK-4770,PAYLOAD,2023-08-17 02:45:00,15.08841892,0.0001444,53.2165,173.937,85.1849,274.9308,3.0897e-05,2.04e-06,0.0,0 STARLINK-4770,1 53849U 22114AH  23229.11459463  .00000204  00000-0  30897-4 0  9997,2 53849  53.2165 173.9370 0001444  85.1849 274.9308 15.08841892 51196,6917.875,95.437,540.739,538.741,0.0
53849.0,STARLINK-4770,PAYLOAD,2023-08-18 20:05:02,15.08831556,0.0001554,53.2178,166.2049,105.6025,254.5139,3.5131e-05,2.71e-06,0.0,0 STARLINK-4770,1 53849U 22114AH  23230.83683922  .00000271  00000-0  35131-4 0  9997,2 53849  53.2178 166.2049 0001554 105.6025 254.5139 15.08831556 51455,6917.906,95.438,540.846,538.696,0.0
53849.0,STARLINK-4770,PAYLOAD,2023-08-19 05:37:21,15.08840654,0.0001428,53.2164,164.4186,96.3906,263.7249,1.7943e-05,-2e-08,0.0,0 STARLINK-4770,1 53849U 22114AH  23231.23427531 -.00000002  00000-0  17943-4 0  9998,2 53849  53.2164 164.4186 0001428  96.3906 263.7249 15.08840654 51516,6917.878,95.438,540.731,538.756,0.0
53849.0,STARLINK-4770,PAYLOAD,2023-08-20 03:52:43,15.08865597,0.0001441,53.2181,160.2594,94.7552,265.3605,0.00024722,3.651e-05,0.0,0 STARLINK-4770,1 53849U 22114AH  23232.16161414  .00003651  00000-0  24722-3 0  9990,2 53849  53.2181 160.2594 0001441  94.7552 265.3605 15.08865597 51658,6917.802,95.436,540.664,538.67,0.0
53849.0,STARLINK-4770,PAYLOAD,2023-08-21 03:43:32,15.08836397,0.000128,53.2168,155.7947,95.2272,264.8866,3.0468e-05,1.97e-06,0.0,0 STARLINK-4770,1 53849U 22114AH  23233.15523837  .00000197  00000-0  30468-4 0  9998,2 53849  53.2168 155.7947 0001280  95.2272 264.8866 15.08836397 51806,6917.891,95.438,540.642,538.871,0.0
53849.0,STARLINK-4770,PAYLOAD,2023-08-22 05:09:43,15.08849154,0.0001386,53.2177,151.0369,87.4089,272.7062,-0.00019517,-3.394e-05,0.0,0 STARLINK-4770,1 53849U 22114AH  23234.21508219 -.00003394  00000-0 -19517-3 0  9998,2 53849  53.2177 151.0369 0001386  87.4089 272.7062 15.08849154 51967,6917.852,95.437,540.676,538.759,0.0
53849.0,STARLINK-4770,PAYLOAD,2023-08-24 03:15:55,15.08831129,0.0001198,53.2167,142.413,100.8586,259.2541,1.2152e-05,-9.4e-07,0.0,0 STARLINK-4770,1 53849U 22114AH  23236.13605574 -.00000094  00000-0  12152-4 0  9995,2 53849  53.2167 142.4130 0001198 100.8586 259.2541 15.08831129 52796,6917.908,95.438,540.601,538.944,0.0
53849.0,STARLINK-4770,PAYLOAD,2023-08-24 23:55:54,15.0885607,0.0001156,53.2164,138.5456,111.6794,248.4322,6.1605e-05,6.93e-06,0.0,0 STARLINK-4770,1 53849U 22114AH  23236.99715704  .00000693  00000-0  61605-4 0  9997,2 53849  53.2164 138.5456 0001156 111.6794 248.4322 15.08856070 52389,6917.831,95.437,540.496,538.897,0.0
53849.0,STARLINK-4770,PAYLOAD,2023-08-25 03:06:40,15.088554,0.0001208,53.2174,137.9508,101.2302,258.8826,0.00011725,1.579e-05,0.0,0 STARLINK-4770,1 53849U 22114AH  23237.12963415  .00001579  00000-0  11725-3 0  9998,2 53849  53.2174 137.9508 0001208 101.2302 258.8826 15.08855400 52941,6917.833,95.437,540.534,538.863,0.0
